start=new Date('2023-01-08T00:00:00.000Z').valueOf();
sats=[{"INCLINATION":"53.2166","BSTAR":"0.00088491000000","FILE":"3735488","TLE_LINE2":"2 49424  53.2166  22.8749 0001734  45.9321 314.1813 15.08838239 63961","ECCENTRICITY":"0.00017340","MEAN_MOTION_DOT":"0.00013823","ARG_OF_PERICENTER":"45.9321","CLASSIFICATION_TYPE":"U","MEAN_ELEMENT_THEORY":"SGP4","OBJECT_ID":"2021-104S","EPHEMERIS_TYPE":"0","EPOCH":"2023-01-07T17:46:40.970208","TLE_LINE1":"1 49424U 21104S   23007.74075197  .00013823  00000-0  88491-3 0  9993","PERIAPSIS":"538.551","REV_AT_EPOCH":"6396","APOAPSIS":"540.950","REF_FRAME":"TEME","MEAN_MOTION":"15.08838239","ELEMENT_SET_NO":"999","MEAN_MOTION_DDOT":"0.0000000000000","TIME_SYSTEM":"UTC","PERIOD":"95.438","COUNTRY_CODE":"US","OBJECT_NAME":"STARLINK-3135","DECAY_DATE":null,"NORAD_CAT_ID":"49424","LAUNCH_DATE":"2021-11-13","OBJECT_TYPE":"PAYLOAD","SITE":"AFETR","MEAN_ANOMALY":"314.1813","RCS_SIZE":"LARGE","GP_ID":"222424367","CENTER_NAME":"EARTH","SEMIMAJOR_AXIS":"6917.886","RA_OF_ASC_NODE":"22.8749"},{"ELEMENT_SET_NO":"999","MEAN_MOTION":"15.08832221","COUNTRY_CODE":"US","PERIOD":"95.438","MEAN_MOTION_DDOT":"0.0000000000000","TIME_SYSTEM":"UTC","OBJECT_NAME":"STARLINK-3139","LAUNCH_DATE":"2021-11-13","NORAD_CAT_ID":"49425","DECAY_DATE":null,"OBJECT_TYPE":"PAYLOAD","RCS_SIZE":"LARGE","SITE":"AFETR","MEAN_ANOMALY":"326.3667","RA_OF_ASC_NODE":"22.9440","SEMIMAJOR_AXIS":"6917.904","CENTER_NAME":"EARTH","GP_ID":"222424117","INCLINATION":"53.2162","BSTAR":"0.00065359000000","ECCENTRICITY":"0.00031190","MEAN_MOTION_DOT":"0.00010127","TLE_LINE2":"2 49425  53.2162  22.9440 0003119  33.7523 326.3667 15.08832221 63973","FILE":"3735488","CLASSIFICATION_TYPE":"U","ARG_OF_PERICENTER":"33.7523","EPHEMERIS_TYPE":"0","MEAN_ELEMENT_THEORY":"SGP4","OBJECT_ID":"2021-104T","REV_AT_EPOCH":"6397","APOAPSIS":"541.927","REF_FRAME":"TEME","TLE_LINE1":"1 49425U 21104T   23007.72603249  .00010127  00000-0  65359-3 0  9999","PERIAPSIS":"537.611","EPOCH":"2023-01-07T17:25:29.207136"},{"FILE":"3735488","TLE_LINE2":"2 49426  53.2158  22.9052 0002998  27.2628 332.8521 15.08829848 63967","MEAN_MOTION_DOT":"0.00009415","ECCENTRICITY":"0.00029980","ARG_OF_PERICENTER":"27.2628","CLASSIFICATION_TYPE":"U","OBJECT_ID":"2021-104U","MEAN_ELEMENT_THEORY":"SGP4","EPHEMERIS_TYPE":"0","EPOCH":"2023-01-07T17:36:05.054112","TLE_LINE1":"1 49426U 21104U   23007.73339183  .00009415  00000-0  60901-3 0  9990","PERIAPSIS":"537.702","REF_FRAME":"TEME","APOAPSIS":"541.850","REV_AT_EPOCH":"6396","INCLINATION":"53.2158","BSTAR":"0.00060901000000","DECAY_DATE":null,"LAUNCH_DATE":"2021-11-13","NORAD_CAT_ID":"49426","OBJECT_TYPE":"PAYLOAD","SITE":"AFETR","MEAN_ANOMALY":"332.8521","RCS_SIZE":"LARGE","CENTER_NAME":"EARTH","GP_ID":"222424867","RA_OF_ASC_NODE":"22.9052","SEMIMAJOR_AXIS":"6917.911","MEAN_MOTION":"15.08829848","ELEMENT_SET_NO":"999","MEAN_MOTION_DDOT":"0.0000000000000","TIME_SYSTEM":"UTC","PERIOD":"95.438","COUNTRY_CODE":"US","OBJECT_NAME":"STARLINK-3114"},{"CLASSIFICATION_TYPE":"U","ARG_OF_PERICENTER":"48.7904","MEAN_MOTION_DOT":"0.00002539","ECCENTRICITY":"0.00023700","TLE_LINE2":"2 49427  53.2150  24.1484 0002370  48.7904 311.3292 15.08840087 63934","FILE":"3735488","APOAPSIS":"541.385","REF_FRAME":"TEME","REV_AT_EPOCH":"6393","PERIAPSIS":"538.106","TLE_LINE1":"1 49427U 21104V   23007.45740080  .00002539  00000-0  17759-3 0  9995","EPOCH":"2023-01-07T10:58:39.429120","EPHEMERIS_TYPE":"0","MEAN_ELEMENT_THEORY":"SGP4","OBJECT_ID":"2021-104V","INCLINATION":"53.2150","BSTAR":"0.00017759000000","OBJECT_TYPE":"PAYLOAD","LAUNCH_DATE":"2021-11-13","NORAD_CAT_ID":"49427","DECAY_DATE":null,"RA_OF_ASC_NODE":"24.1484","SEMIMAJOR_AXIS":"6917.880","GP_ID":"222425117","CENTER_NAME":"EARTH","RCS_SIZE":"LARGE","MEAN_ANOMALY":"311.3292","SITE":"AFETR","COUNTRY_CODE":"US","PERIOD":"95.438","TIME_SYSTEM":"UTC","MEAN_MOTION_DDOT":"0.0000000000000","ELEMENT_SET_NO":"999","MEAN_MOTION":"15.08840087","OBJECT_NAME":"STARLINK-3131"},{"ELEMENT_SET_NO":"999","MEAN_MOTION":"15.08831914","PERIOD":"95.438","MEAN_MOTION_DDOT":"0.0000000000000","TIME_SYSTEM":"UTC","COUNTRY_CODE":"US","OBJECT_NAME":"STARLINK-3121","NORAD_CAT_ID":"49428","LAUNCH_DATE":"2021-11-13","DECAY_DATE":null,"OBJECT_TYPE":"PAYLOAD","MEAN_ANOMALY":"336.2613","SITE":"AFETR","RCS_SIZE":"LARGE","CENTER_NAME":"EARTH","GP_ID":"222423867","RA_OF_ASC_NODE":"24.7918","SEMIMAJOR_AXIS":"6917.905","INCLINATION":"53.2200","BSTAR":"-0.00010334000000","TLE_LINE2":"2 49428  53.2200  24.7918 0002812  23.8509 336.2613 15.08831914 63915","FILE":"3735488","MEAN_MOTION_DOT":"-0.00001933","ECCENTRICITY":"0.00028120","ARG_OF_PERICENTER":"23.8509","CLASSIFICATION_TYPE":"U","OBJECT_ID":"2021-104W","MEAN_ELEMENT_THEORY":"SGP4","EPHEMERIS_TYPE":"0","EPOCH":"2023-01-07T07:33:20.945664","REV_AT_EPOCH":"6391","APOAPSIS":"541.715","REF_FRAME":"TEME","PERIAPSIS":"537.825","TLE_LINE1":"1 49428U 21104W   23007.31482576 -.00001933  00000-0 -10334-3 0  9995"},{"CENTER_NAME":"EARTH","GP_ID":"222424618","RA_OF_ASC_NODE":"24.1714","SEMIMAJOR_AXIS":"6917.880","SITE":"AFETR","MEAN_ANOMALY":"335.4149","RCS_SIZE":"LARGE","OBJECT_TYPE":"PAYLOAD","LAUNCH_DATE":"2021-11-13","NORAD_CAT_ID":"49430","DECAY_DATE":null,"OBJECT_NAME":"STARLINK-3138","PERIOD":"95.438","MEAN_MOTION_DDOT":"0.0000000000000","TIME_SYSTEM":"UTC","COUNTRY_CODE":"US","ELEMENT_SET_NO":"999","MEAN_MOTION":"15.08840222","EPOCH":"2023-01-07T10:53:19.834656","APOAPSIS":"541.673","REV_AT_EPOCH":"6393","REF_FRAME":"TEME","PERIAPSIS":"537.817","TLE_LINE1":"1 49430U 21104Y   23007.45370179  .00005405  00000-0  35741-3 0  9993","MEAN_ELEMENT_THEORY":"SGP4","OBJECT_ID":"2021-104Y","EPHEMERIS_TYPE":"0","ARG_OF_PERICENTER":"24.6977","CLASSIFICATION_TYPE":"U","TLE_LINE2":"2 49430  53.2155  24.1714 0002787  24.6977 335.4149 15.08840222 63933","FILE":"3735488","ECCENTRICITY":"0.00027870","MEAN_MOTION_DOT":"0.00005405","BSTAR":"0.00035741000000","INCLINATION":"53.2155"},{"SITE":"AFETR","MEAN_ANOMALY":"335.9367","RCS_SIZE":"LARGE","GP_ID":"222425367","CENTER_NAME":"EARTH","SEMIMAJOR_AXIS":"6917.902","RA_OF_ASC_NODE":"22.8605","NORAD_CAT_ID":"49431","LAUNCH_DATE":"2021-11-13","DECAY_DATE":null,"OBJECT_TYPE":"PAYLOAD","OBJECT_NAME":"STARLINK-3153","ELEMENT_SET_NO":"999","MEAN_MOTION":"15.08833083","PERIOD":"95.438","TIME_SYSTEM":"UTC","MEAN_MOTION_DDOT":"0.0000000000000","COUNTRY_CODE":"US","MEAN_ELEMENT_THEORY":"SGP4","OBJECT_ID":"2021-104Z","EPHEMERIS_TYPE":"0","EPOCH":"2023-01-07T17:53:20.644512","APOAPSIS":"541.605","REF_FRAME":"TEME","REV_AT_EPOCH":"6397","TLE_LINE1":"1 49431U 21104Z   23007.74537783 -.00000550  00000-0 -16446-4 0  9992","PERIAPSIS":"537.928","TLE_LINE2":"2 49431  53.2169  22.8605 0002657  24.1749 335.9367 15.08833083 63979","FILE":"3735488","MEAN_MOTION_DOT":"-0.00000550","ECCENTRICITY":"0.00026570","ARG_OF_PERICENTER":"24.1749","CLASSIFICATION_TYPE":"U","BSTAR":"-0.00001644600000","INCLINATION":"53.2169"},{"NORAD_CAT_ID":"49432","LAUNCH_DATE":"2021-11-13","DECAY_DATE":null,"OBJECT_TYPE":"PAYLOAD","RCS_SIZE":"LARGE","MEAN_ANOMALY":"331.2839","SITE":"AFETR","RA_OF_ASC_NODE":"14.3052","SEMIMAJOR_AXIS":"6917.874","CENTER_NAME":"EARTH","GP_ID":"222425618","ELEMENT_SET_NO":"999","MEAN_MOTION":"15.08841954","COUNTRY_CODE":"US","PERIOD":"95.437","MEAN_MOTION_DDOT":"0.0000000000000","TIME_SYSTEM":"UTC","OBJECT_NAME":"STARLINK-3158","MEAN_MOTION_DOT":"0.00006126","ECCENTRICITY":"0.00028450","TLE_LINE2":"2 49432  53.2166  14.3052 0002845  28.8310 331.2839 15.08841954 64063","FILE":"3735488","CLASSIFICATION_TYPE":"U","ARG_OF_PERICENTER":"28.8310","EPHEMERIS_TYPE":"0","MEAN_ELEMENT_THEORY":"SGP4","OBJECT_ID":"2021-104AA","APOAPSIS":"541.708","REF_FRAME":"TEME","REV_AT_EPOCH":"6406","PERIAPSIS":"537.771","TLE_LINE1":"1 49432U 21104AA  23007.41877846  .00006126  00000-0  40265-3 0  9992","EPOCH":"2023-01-07T10:03:02.458944","INCLINATION":"53.2166","BSTAR":"0.00040265000000"},{"OBJECT_NAME":"STARLINK-3079","COUNTRY_CODE":"US","PERIOD":"95.438","TIME_SYSTEM":"UTC","MEAN_MOTION_DDOT":"0.0000000000000","ELEMENT_SET_NO":"999","MEAN_MOTION":"15.08836843","RA_OF_ASC_NODE":"4.6190","SEMIMAJOR_AXIS":"6917.890","CENTER_NAME":"EARTH","GP_ID":"222424368","RCS_SIZE":"LARGE","MEAN_ANOMALY":"336.8829","SITE":"AFETR","OBJECT_TYPE":"PAYLOAD","LAUNCH_DATE":"2021-11-13","NORAD_CAT_ID":"49433","DECAY_DATE":null,"BSTAR":"0.00101120000000","INCLINATION":"53.2179","REF_FRAME":"TEME","APOAPSIS":"541.749","REV_AT_EPOCH":"6528","TLE_LINE1":"1 49433U 21104AB  23007.35250261  .00015841  00000-0  10112-2 0  9993","PERIAPSIS":"537.761","EPOCH":"2023-01-07T08:27:36.225504","EPHEMERIS_TYPE":"0","MEAN_ELEMENT_THEORY":"SGP4","OBJECT_ID":"2021-104AB","CLASSIFICATION_TYPE":"U","ARG_OF_PERICENTER":"23.2293","MEAN_MOTION_DOT":"0.00015841","ECCENTRICITY":"0.00028830","TLE_LINE2":"2 49433  53.2179   4.6190 0002883  23.2293 336.8829 15.08836843 65280","FILE":"3735488"},{"OBJECT_NAME":"STARLINK-3134","ELEMENT_SET_NO":"999","MEAN_MOTION":"15.08842354","COUNTRY_CODE":"US","PERIOD":"95.437","TIME_SYSTEM":"UTC","MEAN_MOTION_DDOT":"0.0000000000000","RCS_SIZE":"LARGE","SITE":"AFETR","MEAN_ANOMALY":"343.1383","SEMIMAJOR_AXIS":"6917.873","RA_OF_ASC_NODE":"23.8855","GP_ID":"222424118","CENTER_NAME":"EARTH","NORAD_CAT_ID":"49434","LAUNCH_DATE":"2021-11-13","DECAY_DATE":null,"OBJECT_TYPE":"PAYLOAD","BSTAR":"0.00000395270000","INCLINATION":"53.2173","EPHEMERIS_TYPE":"0","OBJECT_ID":"2021-104AC","MEAN_ELEMENT_THEORY":"SGP4","REV_AT_EPOCH":"6502","APOAPSIS":"541.796","REF_FRAME":"TEME","TLE_LINE1":"1 49434U 21104AC  23007.51625526 -.00000226  00000-0  39527-5 0  9998","PERIAPSIS":"537.681","EPOCH":"2023-01-07T12:23:24.454464","ECCENTRICITY":"0.00029740","MEAN_MOTION_DOT":"-0.00000226","TLE_LINE2":"2 49434  53.2173  23.8855 0002974  16.9708 343.1383 15.08842354 65029","FILE":"3735488","CLASSIFICATION_TYPE":"U","ARG_OF_PERICENTER":"16.9708"}];
